start=new Date('2022-08-30T00:00:00.000Z').valueOf();
sats=[{"GP_ID":"211255425","ECCENTRICITY":"0.00021530","TLE_LINE2":"2 49414  53.2160 252.7214 0002153  45.9185 314.1984 15.08838980 44139","RCS_SIZE":"LARGE","ARG_OF_PERICENTER":"45.9185","MEAN_ANOMALY":"314.1984","OBJECT_NAME":"STARLINK-3146","INCLINATION":"53.2160","FILE":"3550737","CENTER_NAME":"EARTH","EPHEMERIS_TYPE":"0","ELEMENT_SET_NO":"999","REF_FRAME":"TEME","MEAN_ELEMENT_THEORY":"SGP4","SITE":"AFETR","TLE_LINE1":"1 49414U 21104G   22241.34620312  .00001199  00000-0  93415-4 0  9998","DECAY_DATE":null,"MEAN_MOTION":"15.08838980","TIME_SYSTEM":"UTC","PERIOD":"95.438","COUNTRY_CODE":"US","APOAPSIS":"541.238","CLASSIFICATION_TYPE":"U","NORAD_CAT_ID":"49414","OBJECT_TYPE":"PAYLOAD","LAUNCH_DATE":"2021-11-13","RA_OF_ASC_NODE":"252.7214","EPOCH":"2022-08-29T08:18:31.949568","MEAN_MOTION_DDOT":"0.0000000000000","OBJECT_ID":"2021-104G","SEMIMAJOR_AXIS":"6917.884","PERIAPSIS":"538.259","BSTAR":"0.00009341500000","REV_AT_EPOCH":"4413","MEAN_MOTION_DOT":"0.00001199"},{"ECCENTRICITY":"0.00026510","GP_ID":"211255676","TLE_LINE2":"2 49415  53.2157 243.0695 0002651  46.0357 314.0853 15.08848062 44257","RCS_SIZE":"LARGE","MEAN_ANOMALY":"314.0853","ARG_OF_PERICENTER":"46.0357","OBJECT_NAME":"STARLINK-3159","INCLINATION":"53.2157","FILE":"3550737","EPHEMERIS_TYPE":"0","CENTER_NAME":"EARTH","ELEMENT_SET_NO":"999","MEAN_ELEMENT_THEORY":"SGP4","REF_FRAME":"TEME","SITE":"AFETR","TLE_LINE1":"1 49415U 21104H   22241.26983483  .00001100  00000-0  87196-4 0  9992","DECAY_DATE":null,"MEAN_MOTION":"15.08848062","TIME_SYSTEM":"UTC","PERIOD":"95.437","COUNTRY_CODE":"US","APOAPSIS":"541.555","CLASSIFICATION_TYPE":"U","NORAD_CAT_ID":"49415","OBJECT_TYPE":"PAYLOAD","EPOCH":"2022-08-29T06:28:33.729312","LAUNCH_DATE":"2021-11-13","RA_OF_ASC_NODE":"243.0695","MEAN_MOTION_DDOT":"0.0000000000000","OBJECT_ID":"2021-104H","SEMIMAJOR_AXIS":"6917.856","PERIAPSIS":"537.887","REV_AT_EPOCH":"4425","BSTAR":"0.00008719600000","MEAN_MOTION_DOT":"0.00001100"},{"APOAPSIS":"540.981","CLASSIFICATION_TYPE":"U","TIME_SYSTEM":"UTC","COUNTRY_CODE":"US","PERIOD":"95.438","OBJECT_ID":"2021-104J","MEAN_MOTION_DOT":"-0.00000674","BSTAR":"-0.00002426100000","REV_AT_EPOCH":"4415","PERIAPSIS":"538.568","SEMIMAJOR_AXIS":"6917.909","NORAD_CAT_ID":"49416","OBJECT_TYPE":"PAYLOAD","MEAN_MOTION_DDOT":"0.0000000000000","LAUNCH_DATE":"2021-11-13","RA_OF_ASC_NODE":"252.1524","EPOCH":"2022-08-29T11:18:42.389280","RCS_SIZE":"LARGE","OBJECT_NAME":"STARLINK-3133","ARG_OF_PERICENTER":"55.6346","MEAN_ANOMALY":"304.4811","TLE_LINE2":"2 49416  53.2162 252.1524 0001744  55.6346 304.4811 15.08830490 44154","GP_ID":"211255884","ECCENTRICITY":"0.00017440","MEAN_ELEMENT_THEORY":"SGP4","REF_FRAME":"TEME","ELEMENT_SET_NO":"999","EPHEMERIS_TYPE":"0","CENTER_NAME":"EARTH","MEAN_MOTION":"15.08830490","DECAY_DATE":null,"TLE_LINE1":"1 49416U 21104J   22241.47132395 -.00000674  00000-0 -24261-4 0  9995","SITE":"AFETR","FILE":"3550737","INCLINATION":"53.2162"},{"MEAN_ELEMENT_THEORY":"SGP4","REF_FRAME":"TEME","ELEMENT_SET_NO":"999","EPHEMERIS_TYPE":"0","CENTER_NAME":"EARTH","DECAY_DATE":null,"MEAN_MOTION":"15.08847453","TLE_LINE1":"1 49417U 21104K   22241.72983509  .00001239  00000-0  95914-4 0  9994","SITE":"AFETR","FILE":"3551093","INCLINATION":"53.2147","RCS_SIZE":"LARGE","OBJECT_NAME":"STARLINK-3154","MEAN_ANOMALY":"313.6004","ARG_OF_PERICENTER":"46.5197","TLE_LINE2":"2 49417  53.2147 241.0063 0002515  46.5197 313.6004 15.08847453 44325","GP_ID":"211288007","ECCENTRICITY":"0.00025150","OBJECT_ID":"2021-104K","MEAN_MOTION_DOT":"0.00001239","REV_AT_EPOCH":"4432","BSTAR":"0.00009591400000","PERIAPSIS":"537.983","SEMIMAJOR_AXIS":"6917.858","OBJECT_TYPE":"PAYLOAD","NORAD_CAT_ID":"49417","MEAN_MOTION_DDOT":"0.0000000000000","LAUNCH_DATE":"2021-11-13","RA_OF_ASC_NODE":"241.0063","EPOCH":"2022-08-29T17:30:57.751776","APOAPSIS":"541.462","CLASSIFICATION_TYPE":"U","TIME_SYSTEM":"UTC","COUNTRY_CODE":"US","PERIOD":"95.437"},{"TLE_LINE2":"2 49418  53.2154 252.1843 0002070  47.5159 312.6008 15.08838906 44144","ECCENTRICITY":"0.00020700","GP_ID":"211254925","OBJECT_NAME":"STARLINK-3111","ARG_OF_PERICENTER":"47.5159","MEAN_ANOMALY":"312.6008","RCS_SIZE":"LARGE","FILE":"3550737","INCLINATION":"53.2154","MEAN_MOTION":"15.08838906","DECAY_DATE":null,"TLE_LINE1":"1 49418U 21104L   22241.46764918 -.00000691  00000-0 -25293-4 0  9993","SITE":"AFETR","MEAN_ELEMENT_THEORY":"SGP4","REF_FRAME":"TEME","ELEMENT_SET_NO":"999","CENTER_NAME":"EARTH","EPHEMERIS_TYPE":"0","COUNTRY_CODE":"US","PERIOD":"95.438","TIME_SYSTEM":"UTC","CLASSIFICATION_TYPE":"U","APOAPSIS":"541.181","MEAN_MOTION_DDOT":"0.0000000000000","RA_OF_ASC_NODE":"252.1843","LAUNCH_DATE":"2021-11-13","EPOCH":"2022-08-29T11:13:24.889152","NORAD_CAT_ID":"49418","OBJECT_TYPE":"PAYLOAD","MEAN_MOTION_DOT":"-0.00000691","BSTAR":"-0.00002529300000","REV_AT_EPOCH":"4414","PERIAPSIS":"538.317","SEMIMAJOR_AXIS":"6917.884","OBJECT_ID":"2021-104L"},{"FILE":"3551093","INCLINATION":"53.2170","MEAN_MOTION":"15.08839185","DECAY_DATE":null,"TLE_LINE1":"1 49419U 21104M   22241.72155969  .00000408  00000-0  43751-4 0  9996","SITE":"AFETR","REF_FRAME":"TEME","MEAN_ELEMENT_THEORY":"SGP4","ELEMENT_SET_NO":"999","EPHEMERIS_TYPE":"0","CENTER_NAME":"EARTH","TLE_LINE2":"2 49419  53.2170 251.0478 0002124  50.9798 309.1383 15.08839185 44183","ECCENTRICITY":"0.00021240","GP_ID":"211289009","OBJECT_NAME":"STARLINK-3120","MEAN_ANOMALY":"309.1383","ARG_OF_PERICENTER":"50.9798","RCS_SIZE":"LARGE","MEAN_MOTION_DDOT":"0.0000000000000","LAUNCH_DATE":"2021-11-13","RA_OF_ASC_NODE":"251.0478","EPOCH":"2022-08-29T17:19:02.757216","OBJECT_TYPE":"PAYLOAD","NORAD_CAT_ID":"49419","MEAN_MOTION_DOT":"0.00000408","BSTAR":"0.00004375100000","REV_AT_EPOCH":"4418","PERIAPSIS":"538.279","SEMIMAJOR_AXIS":"6917.883","OBJECT_ID":"2021-104M","COUNTRY_CODE":"US","PERIOD":"95.438","TIME_SYSTEM":"UTC","CLASSIFICATION_TYPE":"U","APOAPSIS":"541.217"},{"OBJECT_NAME":"STARLINK-3110","MEAN_ANOMALY":"299.0080","ARG_OF_PERICENTER":"61.1086","RCS_SIZE":"LARGE","TLE_LINE2":"2 49420  53.2162 252.7812 0001728  61.1086 299.0080 15.08838788 44122","GP_ID":"211256385","ECCENTRICITY":"0.00017280","DECAY_DATE":null,"MEAN_MOTION":"15.08838788","TLE_LINE1":"1 49420U 21104N   22241.33148950 -.00000466  00000-0 -11153-4 0  9994","SITE":"AFETR","REF_FRAME":"TEME","MEAN_ELEMENT_THEORY":"SGP4","ELEMENT_SET_NO":"999","CENTER_NAME":"EARTH","EPHEMERIS_TYPE":"0","FILE":"3550737","INCLINATION":"53.2162","CLASSIFICATION_TYPE":"U","APOAPSIS":"540.945","COUNTRY_CODE":"US","PERIOD":"95.438","TIME_SYSTEM":"UTC","MEAN_MOTION_DOT":"-0.00000466","REV_AT_EPOCH":"4412","BSTAR":"-0.00001115300000","PERIAPSIS":"538.554","SEMIMAJOR_AXIS":"6917.884","OBJECT_ID":"2021-104N","MEAN_MOTION_DDOT":"0.0000000000000","LAUNCH_DATE":"2021-11-13","RA_OF_ASC_NODE":"252.7812","EPOCH":"2022-08-29T07:57:20.692800","NORAD_CAT_ID":"49420","OBJECT_TYPE":"PAYLOAD"},{"INCLINATION":"53.2158","FILE":"3550737","SITE":"AFETR","TLE_LINE1":"1 49421U 21104P   22241.51548820 -.00000750  00000-0 -29045-4 0  9990","MEAN_MOTION":"15.08833454","DECAY_DATE":null,"EPHEMERIS_TYPE":"0","CENTER_NAME":"EARTH","ELEMENT_SET_NO":"999","MEAN_ELEMENT_THEORY":"SGP4","REF_FRAME":"TEME","ECCENTRICITY":"0.00021260","GP_ID":"211255176","TLE_LINE2":"2 49421  53.2158 251.9699 0002126  50.8028 309.3153 15.08833454 44150","ARG_OF_PERICENTER":"50.8028","MEAN_ANOMALY":"309.3153","OBJECT_NAME":"STARLINK-3112","RCS_SIZE":"LARGE","EPOCH":"2022-08-29T12:22:18.180480","LAUNCH_DATE":"2021-11-13","RA_OF_ASC_NODE":"251.9699","MEAN_MOTION_DDOT":"0.0000000000000","OBJECT_TYPE":"PAYLOAD","NORAD_CAT_ID":"49421","SEMIMAJOR_AXIS":"6917.900","PERIAPSIS":"538.295","REV_AT_EPOCH":"4415","BSTAR":"-0.00002904500000","MEAN_MOTION_DOT":"-0.00000750","OBJECT_ID":"2021-104P","PERIOD":"95.438","COUNTRY_CODE":"US","TIME_SYSTEM":"UTC","CLASSIFICATION_TYPE":"U","APOAPSIS":"541.236"},{"OBJECT_ID":"2021-104Q","BSTAR":"-0.00003277100000","REV_AT_EPOCH":"4412","MEAN_MOTION_DOT":"-0.00000810","SEMIMAJOR_AXIS":"6917.877","PERIAPSIS":"538.490","OBJECT_TYPE":"PAYLOAD","NORAD_CAT_ID":"49422","MEAN_MOTION_DDOT":"0.0000000000000","LAUNCH_DATE":"2021-11-13","RA_OF_ASC_NODE":"252.8138","EPOCH":"2022-08-29T07:52:02.497152","APOAPSIS":"540.994","CLASSIFICATION_TYPE":"U","TIME_SYSTEM":"UTC","COUNTRY_CODE":"US","PERIOD":"95.437","ELEMENT_SET_NO":"999","MEAN_ELEMENT_THEORY":"SGP4","REF_FRAME":"TEME","EPHEMERIS_TYPE":"0","CENTER_NAME":"EARTH","TLE_LINE1":"1 49422U 21104Q   22241.32780668 -.00000810  00000-0 -32771-4 0  9995","DECAY_DATE":null,"MEAN_MOTION":"15.08841043","SITE":"AFETR","FILE":"3550737","INCLINATION":"53.2160","RCS_SIZE":"LARGE","ARG_OF_PERICENTER":"54.6097","MEAN_ANOMALY":"305.5064","OBJECT_NAME":"STARLINK-3161","TLE_LINE2":"2 49422  53.2160 252.8138 0001810  54.6097 305.5064 15.08841043 44128","ECCENTRICITY":"0.00018100","GP_ID":"211255426"},{"OBJECT_ID":"2021-104R","PERIAPSIS":"538.316","SEMIMAJOR_AXIS":"6917.876","MEAN_MOTION_DOT":"-0.00000364","REV_AT_EPOCH":"4412","BSTAR":"-0.00000472890000","NORAD_CAT_ID":"49423","OBJECT_TYPE":"PAYLOAD","EPOCH":"2022-08-29T07:25:32.436480","LAUNCH_DATE":"2021-11-13","RA_OF_ASC_NODE":"252.8977","MEAN_MOTION_DDOT":"0.0000000000000","APOAPSIS":"541.167","CLASSIFICATION_TYPE":"U","TIME_SYSTEM":"UTC","PERIOD":"95.437","COUNTRY_CODE":"US","EPHEMERIS_TYPE":"0","CENTER_NAME":"EARTH","MEAN_ELEMENT_THEORY":"SGP4","REF_FRAME":"TEME","ELEMENT_SET_NO":"999","SITE":"AFETR","DECAY_DATE":null,"MEAN_MOTION":"15.08841335","TLE_LINE1":"1 49423U 21104R   22241.30940320 -.00000364  00000-0 -47289-5 0  9992","INCLINATION":"53.2161","FILE":"3550737","RCS_SIZE":"LARGE","OBJECT_NAME":"STARLINK-3149","ARG_OF_PERICENTER":"58.1007","MEAN_ANOMALY":"302.0185","ECCENTRICITY":"0.00020610","GP_ID":"211255677","TLE_LINE2":"2 49423  53.2161 252.8977 0002061  58.1007 302.0185 15.08841335 44120"}];
